{"spkid": "54502647", "covariance": {"labels": ["e", "q", "tp", "node", "peri", "i"], "elements": [{"name": "e", "sigma": 1.89637351873653e-07, "units": null, "value": ".6508791891348432", "title": "eccentricity", "label": "e"}, {"label": "q", "units": "au", "value": ".8061114299497425", "title": "perihelion distance", "name": "q", "sigma": 4.385415257691e-07}, {"units": "TDB", "title": "time of perihelion passage", "value": "2460592.913494267299", "name": "tp", "sigma": 0.000121179490323972, "label": "tp"}, {"title": "longitude of the ascending node", "value": "118.6439596119163", "units": "deg", "sigma": 0.00038695393431279, "name": "om", "label": "node"}, {"label": "peri", "name": "w", "sigma": 0.000319455486923147, "units": "deg", "value": "241.8065870335898", "title": "argument of perihelion"}, {"name": "i", "sigma": 0.000134143431830643, "units": "deg", "title": "inclination", "value": "9.425939332206948", "label": "i"}], "data": [["3.596232522565159E-14", "-8.168311524076945E-14", "6.812582459511671E-12", "2.593087727530698E-11", "-2.876247587179815E-11", "-9.722053735912934E-12"], ["-8.168311524076945E-14", "1.923186698238902E-13", "-8.75530061477084E-12", "-3.71625808165292E-11", "4.914302708472595E-11", "1.471321408160783E-11"], ["6.812582459511671E-12", "-8.75530061477084E-12", "1.468446887517774E-8", "4.320410626578146E-8", "-3.341871472400006E-8", "-1.587124305455601E-8"], ["2.593087727530698E-11", "-3.71625808165292E-11", "4.320410626578146E-8", "1.497333472801471E-7", "-1.217758026470815E-7", "-5.078549653967454E-8"], ["-2.876247587179815E-11", "4.914302708472595E-11", "-3.341871472400006E-8", "-1.217758026470815E-7", "1.02051808125305E-7", "4.067322670670646E-8"], ["-9.722053735912934E-12", "1.471321408160783E-11", "-1.587124305455601E-8", "-5.078549653967454E-8", "4.067322670670646E-8", "1.799446030330248E-8"]], "epoch": "2460565.5"}, "elements": [{"label": "e", "units": null, "title": "eccentricity", "value": ".6511537513787634", "sigma": "1.8972E-7", "name": "e"}, {"units": "au", "value": "2.307798208931218", "title": "semi-major axis", "sigma": "2.3687E-7", "name": "a", "label": "a"}, {"title": "perihelion distance", "value": ".8050667477604641", "units": "au", "name": "q", "sigma": "4.3976E-7", "label": "q"}, {"label": "i", "name": "i", "sigma": ".00013414", "title": "inclination; angle with respect to x-y ecliptic plane", "value": "9.429432404984489", "units": "deg"}, {"name": "om", "sigma": ".0003865", "title": "longitude of the ascending node", "value": "118.628992655453", "units": "deg", "label": "node"}, {"label": "peri", "units": "deg", "value": "241.7681881319774", "title": "argument of perihelion", "sigma": ".00031902", "name": "w"}, {"label": "M", "units": "deg", "value": "170.8189997281893", "title": "mean anomaly", "sigma": "5.5476E-5", "name": "ma"}, {"title": "time of perihelion passage", "value": "2460592.884493733265", "units": "TDB", "sigma": ".0001205", "name": "tp", "label": "tp"}, {"sigma": ".00019715", "name": "per", "units": "d", "value": "1280.545973247067", "title": "sidereal orbital period", "label": "period"}, {"label": "n", "value": ".2811300863233765", "title": "mean motion", "units": "deg/d", "sigma": "4.3282E-8", "name": "n"}, {"value": "3.810529670101972", "title": "aphelion distance", "units": "au", "sigma": "3.911E-7", "name": "ad", "label": "Q"}], "epoch": "2461200.5"}